NORAD_CAT_ID,OBJECT_NAME,OBJECT_TYPE,EPOCH,MEAN_MOTION,ECCENTRICITY,INCLINATION,RA_OF_ASC_NODE,ARG_OF_PERICENTER,MEAN_ANOMALY,BSTAR,MEAN_MOTION_DOT,MEAN_MOTION_DDOT,TLE_LINE0,TLE_LINE1,TLE_LINE2,SEMIMAJOR_AXIS,PERIOD,APOGEE,PERIGEE,DECAYED
54769.0,STARLINK-5404,PAYLOAD,2023-01-06 08:00:01,15.62834025,0.0001226,53.2174,209.6989,79.2254,85.4622,-0.014401,-0.01190929,0.0,0 STARLINK-5404,1 54769U 22175M   23006.33334491 -.01190929  00000-0 -14401-1 0  9993,2 54769  53.2174 209.6989 0001226  79.2254  85.4622 15.62834025  2801,6757.611999999999,92.14,380.306,378.649,0.0
54769.0,STARLINK-5404,PAYLOAD,2023-01-06 22:00:00,15.61335607,0.0001228,53.2171,206.862,79.6449,127.2712,-0.015296,-0.01192575,0.0,0 STARLINK-5404,1 54769U 22175M   23006.91667824 -.01192575  00000-0 -15296-1 0  9998,2 54769  53.2171 206.8620 0001228  79.6449 127.2712 15.61335607  1301,6761.935,92.229,384.63,382.97,0.0
54769.0,STARLINK-5404,PAYLOAD,2023-01-07 06:00:00,15.60480134,0.0001097,53.2171,205.2406,73.9193,207.1418,-0.0158659999999999,-0.01196141,0.0,0 STARLINK-5404,1 54769U 22175M   23007.25001157 -.01196141  00000-0 -15866-1 0  9993,2 54769  53.2171 205.2406 0001097  73.9193 207.1418 15.60480134  2951,6764.406,92.279,387.013,385.529,0.0
54769.0,STARLINK-5404,PAYLOAD,2023-01-08 00:00:00,15.58541823,0.000124,53.2172,201.6052,77.1643,96.958,-0.01683,-0.01179663,0.0,0 STARLINK-5404,1 54769U 22175M   23008.00001157 -.01179663  00000-0 -16830-1 0  9999,2 54769  53.2172 201.6052 0001240  77.1643  96.9580 15.58541823  1307,6770.013000000001,92.394,392.718,391.039,0.0
54769.0,STARLINK-5404,PAYLOAD,2023-01-08 06:00:00,15.57904108,0.0001288,53.2172,200.3939,68.5412,68.7742,-0.017375,-0.01187814,0.0,0 STARLINK-5404,1 54769U 22175M   23008.25001157 -.01187814  00000-0 -17375-1 0  9998,2 54769  53.2172 200.3939 0001288  68.5412  68.7742 15.57904108  3102,6771.861,92.432,394.598,392.854,0.0
54769.0,STARLINK-5404,PAYLOAD,2023-01-08 14:00:01,15.57050261,0.0001351999999999,53.2167,198.7825,71.425,135.9125,-0.018002,-0.01191248,0.0,0 STARLINK-5404,1 54769U 22175M   23008.58334491 -.01191248  00000-0 -18002-1 0  9998,2 54769  53.2167 198.7825 0001352  71.4250 135.9125 15.57050261  1309,6774.335999999998,92.483,397.117,395.285,0.0
54769.0,STARLINK-5404,PAYLOAD,2023-01-08 22:00:00,15.56190347,0.0001146,53.217,197.1753,85.9669,190.3648,-0.01853,-0.01187573,0.0,0 STARLINK-5404,1 54769U 22175M   23008.91667824 -.01187573  00000-0 -18530-1 0  9996,2 54769  53.2170 197.1753 0001146  85.9669 190.3648 15.56190347  3217,6776.831999999999,92.534,399.473,397.92,0.0
54769.0,STARLINK-5404,PAYLOAD,2023-01-09 14:00:01,15.54491971,0.0001188,53.2167,193.961,58.9954,352.2282,-0.020127,-0.01227499,0.0,0 STARLINK-5404,1 54769U 22175M   23009.58334491 -.01227499  00000-0 -20127-1 0  9998,2 54769  53.2167 193.9610 0001188  58.9954 352.2282 15.54491971  1308,6781.767,92.635,404.437,402.826,0.0
54769.0,STARLINK-5404,PAYLOAD,2023-01-09 18:00:00,15.54045059,0.0001312,53.2174,193.1599,63.9795,200.333,-0.019987,-0.01183476,0.0,0 STARLINK-5404,1 54769U 22175M   23009.75001157 -.01183476  00000-0 -19987-1 0  9995,2 54769  53.2174 193.1599 0001312  63.9795 200.3330 15.54045059  3347,6783.066999999999,92.661,405.822,404.042,0.0
54769.0,STARLINK-5404,PAYLOAD,2023-01-09 22:00:00,15.53625368,0.0001230999999999,53.2173,192.3599,68.4172,48.7138,-0.020529,-0.01214067,0.0,0 STARLINK-5404,1 54769U 22175M   23009.91667824 -.01214067  00000-0 -20529-1 0  9997,2 54769  53.2173 192.3599 0001231  68.4172  48.7138 15.53625368  1306,6784.288000000001,92.686,406.989,405.318,0.0
54769.0,STARLINK-5404,PAYLOAD,2023-01-10 14:00:01,15.51940595,0.0001252,53.2168,189.1584,61.622,184.2136,-0.022607,-0.01253506,0.0,0 STARLINK-5404,1 54769U 22175M   23010.58334491 -.01253506  00000-0 -22607-1 0  9993,2 54769  53.2168 189.1584 0001252  61.6220 184.2136 15.51940595  3474,6789.198,92.787,411.913,410.213,0.0
54769.0,STARLINK-5404,PAYLOAD,2023-01-10 22:00:00,15.50993778,0.0001501999999999,53.2171,187.5632,56.8375,251.8355,-0.019523,-0.01047973,0.0,0 STARLINK-5404,1 54769U 22175M   23010.91667824 -.01047973  00000-0 -19523-1 0  9991,2 54769  53.2171 187.5632 0001502  56.8375 251.8355 15.50993778  1303,6791.96,92.844,414.845,412.805,0.0
54769.0,STARLINK-5404,PAYLOAD,2023-01-11 08:00:01,15.49980828,0.0001212,53.2172,185.5671,58.6968,57.0742,-0.0026203,-0.00146908,0.0,0 STARLINK-5404,1 54769U 22175M   23011.33334491 -.00146908  00000-0 -26203-2 0  9990,2 54769  53.2172 185.5671 0001212  58.6968  57.0742 15.49980828  3589,6794.919,92.904,417.608,415.961,0.0
54769.0,STARLINK-5404,PAYLOAD,2023-01-11 14:00:01,15.49887102,0.0001319,53.2175,184.3726,62.1014,9.4031,-5.5591e-05,-3.605e-05,0.0,0 STARLINK-5404,1 54769U 22175M   23011.58334491 -.00003605  00000-0 -55591-4 0  9997,2 54769  53.2175 184.3726 0001319  62.1014   9.4031 15.49887102  1301,6795.193,92.91,417.954,416.162,0.0
54769.0,STARLINK-5404,PAYLOAD,2023-01-11 22:00:00,15.49881491,0.0001354,53.2173,182.7811,57.2914,75.1286,0.00013749,7.358e-05,0.0,0 STARLINK-5404,1 54769U 22175M   23011.91667824  .00007358  00000-0  13749-3 0  9998,2 54769  53.2173 182.7811 0001354  57.2914  75.1286 15.49881491  3678,6795.209,92.91,417.995,416.154,0.0
54769.0,STARLINK-5404,PAYLOAD,2023-01-12 22:00:00,15.49859856,9.45e-05,53.2142,178.00799999999995,65.4185,249.7147,0.0008558999999999,0.00048383,0.0,0 STARLINK-5404,1 54769U 22175M   23012.91667824  .00048383  00000-0  85590-3 0  9995,2 54769  53.2142 178.0080 0000945  65.4185 249.7147 15.49859856  3839,6795.273,92.912,417.78,416.496,0.0
54769.0,STARLINK-5404,PAYLOAD,2023-01-13 14:00:01,15.49902718,9.93e-05,53.2145,174.8206,91.8536,345.0941,-0.00055135,-0.00031636,0.0,0 STARLINK-5404,1 54769U 22175M   23013.58334491 -.00031636  00000-0 -55135-3 0  9997,2 54769  53.2145 174.8206 0000993  91.8536 345.0941 15.49902718  1300,6795.147,92.909,417.687,416.338,0.0
54769.0,STARLINK-5404,PAYLOAD,2023-01-13 16:00:00,15.49895488,0.0001004999999999,53.2153,174.4218,84.0241,98.1576,-0.00046712,-0.00026881,0.0,0 STARLINK-5404,1 54769U 22175M   23013.66667824 -.00026881  00000-0 -46712-3 0  9992,2 54769  53.2153 174.4218 0001005  84.0241  98.1576 15.49895488  3947,6795.169,92.909,417.716,416.351,0.0
54769.0,STARLINK-5404,PAYLOAD,2023-01-13 22:00:00,15.49839692,0.0001010999999999,53.2158,173.2263,69.8377,68.0411,0.0023044,0.00132357,0.0,0 STARLINK-5404,1 54769U 22175M   23013.91667824  .00132357  00000-0  23044-2 0  9996,2 54769  53.2158 173.2263 0001011  69.8377  68.0411 15.49839692  1304,6795.331999999999,92.913,417.884,416.51,0.0
54769.0,STARLINK-5404,PAYLOAD,2023-01-14 10:00:00,15.49882509,0.0001062,53.2141,170.83700000000002,98.1204,311.1215,0.00023971,0.00013175,0.0,0 STARLINK-5404,1 54769U 22175M   23014.41667824  .00013175  00000-0  23971-3 0  9998,2 54769  53.2141 170.8370 0001062  98.1204 311.1215 15.49882509  4063,6795.206,92.91,417.793,416.35,0.0
54769.0,STARLINK-5404,PAYLOAD,2023-01-15 06:00:00,15.49879313,9.13e-05,53.2135,166.8545,97.9859,283.5396,0.00024663,0.00013568,0.0,0 STARLINK-5404,1 54769U 22175M   23015.25001157  .00013568  00000-0  24663-3 0  9997,2 54769  53.2135 166.8545 0000913  97.9859 283.5396 15.49879313  4197,6795.215999999999,92.91,417.701,416.46,0.0
54769.0,STARLINK-5404,PAYLOAD,2023-01-15 14:00:01,15.49921658,8.52e-05,53.2138,165.2624,87.9865,354.4564,-0.0012129,-0.00068775,0.0,0 STARLINK-5404,1 54769U 22175M   23015.58334491 -.00068775  00000-0 -12129-2 0  9998,2 54769  53.2138 165.2624 0000852  87.9865 354.4564 15.49921658  1304,6795.092,92.908,417.536,416.378,0.0
54769.0,STARLINK-5404,PAYLOAD,2023-01-15 22:00:01,15.49848409,7.48e-05,53.2136,163.6699,66.9945,76.4484,0.001013,0.0005739,0.0,0 STARLINK-5404,1 54769U 22175M   23015.91668981  .00057390  00000-0  10130-2 0  9998,2 54769  53.2136 163.6699 0000748  66.9945  76.4484 15.49848409  1300,6795.306,92.912,417.679,416.663,0.0
54769.0,STARLINK-5404,PAYLOAD,2023-01-16 04:00:01,15.49958083,9.22e-05,53.214,162.4736,80.5924,18.5085,-0.0040361999999999,-0.00223678,0.0,0 STARLINK-5404,1 54769U 22175M   23016.16668981 -.00223678  00000-0 -40362-2 0  9992,2 54769  53.2140 162.4736 0000922  80.5924  18.5085 15.49958083  4337,6794.986,92.906,417.477,416.224,0.0
54769.0,STARLINK-5404,PAYLOAD,2023-01-16 14:00:01,15.49737791,6.879999999999999e-05,53.2141,160.4831,80.8838,184.2513,-0.024524,-0.01256015,0.0,0 STARLINK-5404,1 54769U 22175M   23016.58334491 -.01256015  00000-0 -24524-1 0  9997,2 54769  53.2141 160.4831 0000688  80.8838 184.2513 15.49737791  4404,6795.629,92.919,417.962,417.027,0.0
54769.0,STARLINK-5404,PAYLOAD,2023-01-16 22:00:00,15.48856769,7.03e-05,53.2139,158.8921,69.7979,255.5172,-0.024344,-0.01212651,0.0,0 STARLINK-5404,1 54769U 22175M   23016.91667824 -.01212651  00000-0 -24344-1 0  9991,2 54769  53.2139 158.8921 0000703  69.7979 255.5172 15.48856769  1307,6798.206,92.972,420.549,419.593,0.0
54769.0,STARLINK-5404,PAYLOAD,2023-01-17 08:00:01,15.47523591,0.0001064,53.2178,156.8982,90.7401,38.3541,-0.0082577,-0.00409905,0.0,0 STARLINK-5404,1 54769U 22175M   23017.33334491 -.00409905  00000-0 -82577-2 0  9991,2 54769  53.2178 156.8982 0001064  90.7401  38.3541 15.47523591  4516,6802.11,93.052,424.699,423.251,0.0
54769.0,STARLINK-5404,PAYLOAD,2023-01-17 14:00:01,15.471295499999998,0.0001238,53.2141,155.7144,82.287,0.2905,-0.025745,-0.01207585,0.0,0 STARLINK-5404,1 54769U 22175M   23017.58334491 -.01207585  00000-0 -25745-1 0  9992,2 54769  53.2141 155.7144 0001238  82.2870   0.2905 15.47129550  1306,6803.265,93.076,425.972,424.288,0.0
54769.0,STARLINK-5404,PAYLOAD,2023-01-17 16:00:00,15.46901028,0.0001429,53.214,155.3182,83.2914,103.655,-0.025278,-0.01179027,0.0,0 STARLINK-5404,1 54769U 22175M   23017.66667824 -.01179027  00000-0 -25278-1 0  9990,2 54769  53.2140 155.3182 0001429  83.2914 103.6550 15.46901028  4567,6803.935,93.089,426.772,424.828,0.0
